STARLINK-1551_new
1 16075C 20055BA  21326.13339028 -.00000818  00000-0 -54826-4 0  3269
2 16075  53.0525 298.1531 0001820  63.9201  42.2215 15.06389675    12
STARLINK-1551_old
1 26075C 20055BA  21325.17432154  .00001808  00000-0  12112-3 0  3254
2 26075  53.0526 302.4587 0001860  65.8573 236.3045 15.06403249    11
